1 01806U 65098B   24265.41214310  .00001388  00000-0  48703-3 0  9993
2 01806  79.7719 152.2160 1428728 295.9233  50.1486 12.07122319572173
1 01806U 65098B   24266.40662821  .00001229  00000-0  43184-3 0  9999
2 01806  79.7719 151.3963 1428672 293.9780  51.8276 12.07124248572298
1  1806U 65098B   24266.40662821  .00001229  00000-0  43184-3 0  9999
2  1806  79.7719 151.3963 1428672 293.9780  51.8276 12.07124248571916
1 01806U 65098B   24266.65524957  .00001202  00000-0  42240-3 0  9996
2 01806  79.7719 151.1914 1428674 293.4914  52.2497 12.07124796572320
1 01806U 65098B   24267.40111411  .00001321  00000-0  46409-3 0  9990
2 01806  79.7719 150.5766 1428636 292.0321  53.5210 12.07127463572414
1 01806U 65098B   24267.64973586  .00001281  00000-0  44990-3 0  9993
2 01806  79.7719 150.3717 1428633 291.5456  53.9466 12.07127901572445
1  1806U 65098B   24267.64973586  .00001281  00000-0  44990-3 0  9993
2  1806  79.7719 150.3717 1428633 291.5456  53.9466 12.07127901572063
1 01806U 65098B   24268.39560216  .00001226  00000-0  43104-3 0  9993
2 01806  79.7712 149.7567 1428602 290.0863  55.2289 12.07129315572534
1 01806U 65098B   24268.64422406  .00001247  00000-0  43844-3 0  9993
2 01806  79.7714 149.5519 1428606 289.5997  55.6582 12.07130119572563
1  1806U 65098B   24268.97572042  .00001246  00000-0  43800-3 0  9992
2  1806  79.7715 149.2787 1428597 288.9512  56.2319 12.07130900572229
1 01806U 65098B   24269.39009077  .00001274  00000-0  44792-3 0  9994
2 01806  79.7715 148.9371 1428580 288.1403  56.9517 12.07132136572654
1  1806U 65098B   24270.38458070  .00001372  00000-0  48203-3 0  9996
2  1806  79.7715 148.1175 1428561 286.1944  58.6897 12.07135235572399
1 01806U 65098B   24270.63320383  .00001330  00000-0  46760-3 0  9999
2 01806  79.7715 147.9126 1428554 285.7080  59.1267 12.07135572572807
1 01806U 65098B   24271.37907309  .00001291  00000-0  45378-3 0  9990
2 01806  79.7715 147.2979 1428571 284.2479  60.4437 12.07137142572899
1  1806U 65098B   24272.37356657  .00001287  00000-0  45246-3 0  9994
2  1806  79.7716 146.4782 1428564 282.3017  62.2135 12.07139641572635
1 01806U 65098B   24272.62218996  .00001274  00000-0  44784-3 0  9997
2 01806  79.7716 146.2733 1428563 281.8152  62.6584 12.07140284573045
1 01806U 65098B   24272.95368793  .00001322  00000-0  46466-3 0  9997
2 01806  79.7715 146.0000 1428561 281.1666  63.2532 12.07141463573084
1 01806U 65098B   24273.61668469  .00001343  00000-0  47206-3 0  9990
2 01806  79.7717 145.4537 1428555 279.8688  64.4489 12.07143422573165
1  1806U 65098B   24273.61668469  .00001343  00000-0  47206-3 0  9990
2  1806  79.7717 145.4537 1428555 279.8688  64.4489 12.07143422572782
1 01806U 65098B   24273.94818331  .00001368  00000-0  48054-3 0  9990
2 01806  79.7717 145.1804 1428551 279.2202  65.0493 12.07144462573203
1 01806U 65098B   24274.61118082  .00001404  00000-0  49326-3 0  9995
2 01806  79.7715 144.6339 1428503 277.9229  66.2563 12.07146627573283
1  1806U 65098B   24275.02555501  .00001392  00000-0  48887-3 0  9999
2  1806  79.7713 144.2921 1428532 277.1120  67.0139 12.07147623572956
1 01806U 65098B   24275.60567906  .00001406  00000-0  49403-3 0  9996
2 01806  79.7712 143.8139 1428547 275.9765  68.0802 12.07149337573401
1 01806U 65098B   24276.10292842  .00001452  00000-0  50992-3 0  9992
2 01806  79.7711 143.4040 1428548 275.0033  68.9989 12.07151039573460
1  1806U 65098B   24276.10292842  .00001452  00000-0  50992-3 0  9992
2  1806  79.7711 143.4040 1428548 275.0033  68.9989 12.07151039573088
1  1806U 65098B   24277.67755409  .00001843  00000-0  64642-3 0  9999
2  1806  79.7710 142.1061 1428550 271.9213  71.9373 12.07157849573271
1 01806U 65098B   24277.92617914  .00001956  00000-0  68594-3 0  9990
2 01806  79.7711 141.9013 1428550 271.4349  72.4052 12.07159310573681
1 01806U 65098B   24278.34055561  .00001789  00000-0  62737-3 0  9998
2 01806  79.7710 141.5597 1428554 270.6239  73.1878 12.07159560573733
1 01806U 65098B   24278.67205633  .00001813  00000-0  63587-3 0  9993
2 01806  79.7710 141.2864 1428558 269.9753  73.8159 12.07160814573770
1 01806U 65098B   24279.08643265  .00001900  00000-0  66629-3 0  9993
2 01806  79.7711 140.9449 1428565 269.1643  74.6042 12.07162597573820
1  1806U 65098B   24279.08643265  .00001900  00000-0  66629-3 0  9993
2  1806  79.7711 140.9449 1428565 269.1643  74.6042 12.07162597573448
1 01806U 65098B   24279.91518602  .00001819  00000-0  63777-3 0  9991
2 01806  79.7711 140.2618 1428581 267.5430  76.1896 12.07164906573926
1  1806U 65098B   24280.32956336  .00001681  00000-0  58943-3 0  9994
2  1806  79.7711 139.9202 1428588 266.7322  76.9873 12.07165487573599
1 01806U 65098B   24280.57818984  .00001646  00000-0  57734-3 0  9995
2 01806  79.7714 139.7154 1428578 266.2457  77.4676 12.07166148574008
1 01806U 65098B   24280.90969148  .00001764  00000-0  61846-3 0  9991
2 01806  79.7716 139.4423 1428576 265.5971  78.1098 12.07167976574047
1 01806U 65098B   24281.32406867  .00001858  00000-0  65099-3 0  9990
2 01806  79.7716 139.1006 1428585 264.7863  78.9153 12.07170006574095
1 01806U 65098B   24281.90419792  .00001724  00000-0  60406-3 0  9994
2 01806  79.7717 138.6225 1428602 263.6516  80.0481 12.07171276574162
1 01806U 65098B   24282.06994908  .00001731  00000-0  60671-3 0  9991
2 01806  79.7715 138.4858 1428597 263.3271  80.3733 12.07171924574183
1  1806U 65098B   24282.06994908  .00001731  00000-0  60671-3 0  9991
2  1806  79.7715 138.4858 1428597 263.3271  80.3733 12.07171924573801
1 01806U 65098B   24282.89870576  .00001770  00000-0  62022-3 0  9991
2 01806  79.7719 137.8027 1428552 261.7039  82.0085 12.07175330574288
1 01806U 65098B   24283.06445705  .00001772  00000-0  62099-3 0  9999
2 01806  79.7718 137.6661 1428549 261.3796  82.3368 12.07176052574303
1 01806U 65098B   24283.89321495  .00001809  00000-0  63376-3 0  9999
2 01806  79.7718 136.9831 1428564 259.7583  83.9855 12.07179181574401
1  1806U 65098B   24283.89321495  .00001809  00000-0  63376-3 0  9999
2  1806  79.7718 136.9831 1428564 259.7583  83.9855 12.07179181574029
1 01806U 65098B   24284.30759425  .00001927  00000-0  67489-3 0  9994
2 01806  79.7720 136.6416 1428571 258.9479  84.8147 12.07181078574450
1 01806U 65098B   24284.63909811  .00001773  00000-0  62110-3 0  9991
2 01806  79.7721 136.3683 1428589 258.2993  85.4806 12.07181739574494
1 01806U 65098B   24285.55073172  .00002383  00000-0  83349-3 0  9990
2 01806  79.7719 135.6169 1428609 256.5162  87.3228 12.07187858574604
1  1806U 65098B   24285.55073172  .00002383  00000-0  83349-3 0  9990
2  1806  79.7719 135.6169 1428609 256.5162  87.3228 12.07187858574222
1 01806U 65098B   24285.71648366  .00002334  00000-0  81627-3 0  9994
2 01806  79.7718 135.4803 1428630 256.1921  87.6592 12.07188285574623
1 01806U 65098B   24286.54524479  .00001844  00000-0  64529-3 0  9991
2 01806  79.7716 134.7972 1428662 254.5708  89.3513 12.07189665574726
1 01806U 65098B   24286.62812086  .00001836  00000-0  64237-3 0  9991
2 01806  79.7716 134.7289 1428668 254.4086  89.5213 12.07189964574733
1 01806U 65098B   24287.53975916  .00001648  00000-0  57647-3 0  9992
2 01806  79.7715 133.9774 1428725 252.6254  91.3995 12.07192637574844
1 01806U 65098B   24287.87126433  .00001444  00000-0  50515-3 0  9992
2 01806  79.7714 133.7042 1428749 251.9770  92.0865 12.07193139574886
1  1806U 65098B   24287.87126433  .00001444  00000-0  50515-3 0  9992
2  1806  79.7714 133.7042 1428749 251.9770  92.0865 12.07193139574505
1 01806U 65098B   24288.53427642  .00001490  00000-0  52108-3 0  9993
2 01806  79.7705 133.1575 1428785 250.6810  93.4665 12.07194528574967
1  1806U 65098B   24288.94865901  .00001517  00000-0  53049-3 0  9997
2  1806  79.7705 132.8159 1428807 249.8704  94.3341 12.07196041574635
1 01806U 65098B   24289.52879534  .00001498  00000-0  52362-3 0  9994
2 01806  79.7705 132.3377 1428830 248.7354  95.5550 12.07197830575089
1 01806U 65098B   24289.86030202  .00001530  00000-0  53467-3 0  9996
2 01806  79.7705 132.0645 1428842 248.0870  96.2554 12.07199073575121
1  1806U 65098B   24290.02605550  .00001524  00000-0  53248-3 0  9990
2  1806  79.7705 131.9278 1428850 247.7629  96.6064 12.07199576574765
1 01806U 65098B   24290.52331704  .00001867  00000-0  65183-3 0  9993
2 01806  79.7705 131.5180 1428858 246.7888  97.6646 12.07202776575201
1 01806U 65098B   24291.51784103  .00002006  00000-0  70011-3 0  9990
2 01806  79.7705 130.6983 1428882 244.8425  99.7942 12.07206379575323
1  1806U 65098B   24291.51784103  .00002006  00000-0  70011-3 0  9990
2  1806  79.7705 130.6983 1428882 244.8425  99.7942 12.07206379574940
1 01806U 65098B   24292.26373443  .00002122  00000-0  74020-3 0  9997
2 01806  79.7706 130.0835 1428910 243.3842 101.4027 12.07209301575416
1 01806U 65098B   24292.92675189  .00002018  00000-0  70356-3 0  9994
2 01806  79.7707 129.5370 1428932 242.0881 102.8417 12.07210820575491
1  1806U 65098B   24293.00962893  .00002054  00000-0  71611-3 0  9990
2  1806  79.7706 129.4687 1428929 241.9263 103.0221 12.07211331575122
1 01806U 65098B   24293.50689297  .00002195  00000-0  76490-3 0  9995
2 01806  79.7708 129.0589 1428944 240.9534 104.1089 12.07213623575566
1 01806U 65098B   24293.92128050  .00001957  00000-0  68213-3 0  9995
2 01806  79.7706 128.7173 1428972 240.1437 105.0172 12.07213477575610
1 01806U 65098B   24294.50142331  .00002015  00000-0  70213-3 0  9997
2 01806  79.7707 128.2391 1428973 239.0089 106.2962 12.07215555575685
1 01806U 65098B   24294.91581205  .00001924  00000-0  67018-3 0  9996
2 01806  79.7707 127.8975 1429016 238.1988 107.2128 12.07216107575730
1 01806U 65098B   24294.99868954  .00001936  00000-0  67434-3 0  9998
2 01806  79.7707 127.8292 1429020 238.0369 107.3965 12.07216470575743
1 01806U 65098B   24295.91034551  .00001684  00000-0  58645-3 0  9993
2 01806  79.7706 127.0778 1429058 236.2547 109.4274 12.07217723575852
1  1806U 65098B   24295.99322330  .00001689  00000-0  58810-3 0  9995
2  1806  79.7707 127.0095 1429056 236.0926 109.6129 12.07218024575487
